{
    "links": {
        "self": "http://www.neowsapp.com/rest/v1/neo/3825140?api_key=iIulBulltgU6a56xZRHN4H3l9WmuAYTsLGpBGhQ2"
    },
    "id": "3825140",
    "neo_reference_id": "3825140",
    "name": "(2018 LE3)",
    "designation": "2018 LE3",
    "nasa_jpl_url": "http://ssd.jpl.nasa.gov/sbdb.cgi?sstr=3825140",
    "absolute_magnitude_h": 21.4,
    "estimated_diameter": {
        "kilometers": {
            "estimated_diameter_min": 0.1394938229,
            "estimated_diameter_max": 0.3119176705
        },
        "meters": {
            "estimated_diameter_min": 139.4938229344,
            "estimated_diameter_max": 311.9176705226
        },
        "miles": {
            "estimated_diameter_min": 0.0866774163,
            "estimated_diameter_max": 0.1938165949
        },
        "feet": {
            "estimated_diameter_min": 457.6569140361,
            "estimated_diameter_max": 1023.3519701574
        }
    },
    "is_potentially_hazardous_asteroid": false,
    "close_approach_data": [
        {
            "close_approach_date": "1974-04-26",
            "close_approach_date_full": "1974-Apr-26 05:58",
            "epoch_date_close_approach": 136187880000,
            "relative_velocity": {
                "kilometers_per_second": "7.0338847674",
                "kilometers_per_hour": "25321.9851627668",
                "miles_per_hour": "15734.0968362759"
            },
            "miss_distance": {
                "astronomical": "1.1558934018",
                "lunar": "449.6425333002",
                "kilometers": "172919190.856334166",
                "miles": "107447002.8144008508"
            },
            "orbiting_body": "Juptr"
        },
        {
            "close_approach_date": "2009-11-19",
            "close_approach_date_full": "2009-Nov-19 19:40",
            "epoch_date_close_approach": 1258659600000,
            "relative_velocity": {
                "kilometers_per_second": "8.4071466539",
                "kilometers_per_hour": "30265.7279538721",
                "miles_per_hour": "18805.9463500046"
            },
            "miss_distance": {
                "astronomical": "1.4836635851",
                "lunar": "577.1451346039",
                "kilometers": "221952912.127523737",
                "miles": "137915144.3858200906"
            },
            "orbiting_body": "Juptr"
        },
        {
            "close_approach_date": "2018-06-06",
            "close_approach_date_full": "2018-Jun-06 16:21",
            "epoch_date_close_approach": 1528302060000,
            "relative_velocity": {
                "kilometers_per_second": "25.1644099577",
                "kilometers_per_hour": "90591.8758478874",
                "miles_per_hour": "56290.2686344831"
            },
            "miss_distance": {
                "astronomical": "0.1460954126",
                "lunar": "56.8311155014",
                "kilometers": "21855562.541731162",
                "miles": "13580416.8311355556"
            },
            "orbiting_body": "Earth"
        },
        {
            "close_approach_date": "2069-04-01",
            "close_approach_date_full": "2069-Apr-01 23:05",
            "epoch_date_close_approach": 3132083100000,
            "relative_velocity": {
                "kilometers_per_second": "7.3574829229",
                "kilometers_per_hour": "26486.9385224763",
                "miles_per_hour": "16457.9535502575"
            },
            "miss_distance": {
                "astronomical": "1.1260088525",
                "lunar": "438.0174436225",
                "kilometers": "168448525.935144175",
                "miles": "104669060.447272615"
            },
            "orbiting_body": "Juptr"
        }
    ],
    "orbital_data": {
        "orbit_id": "11",
        "orbit_determination_date": "2018-07-01 06:28:00",
        "first_observation_date": "2018-06-08",
        "last_observation_date": "2018-07-01",
        "data_arc_in_days": 23,
        "observations_used": 81,
        "orbit_uncertainty": "7",
        "minimum_orbit_intersection": ".145841",
        "jupiter_tisserand_invariant": "3.050",
        "epoch_osculation": "2459000.5",
        "eccentricity": ".7864770855147762",
        "semi_major_axis": "2.310605453050847",
        "inclination": "14.14758838918",
        "ascending_node_longitude": "109.6633265898922",
        "orbital_period": "1282.883199769831",
        "perihelion_distance": ".4933672105608676",
        "perihelion_argument": "43.9985475999782",
        "aphelion_distance": "4.127843695540826",
        "perihelion_time": "2459511.407039629488",
        "mean_anomaly": "216.630335248279",
        "mean_motion": ".2806179082122127",
        "equinox": "J2000",
        "orbit_class": {
            "orbit_class_type": "APO",
            "orbit_class_description": "Near-Earth asteroid orbits which cross the Earth’s orbit similar to that of 1862 Apollo",
            "orbit_class_range": "a (semi-major axis) > 1.0 AU; q (perihelion) < 1.017 AU"
        }
    },
    "is_sentry_object": false
}